[{"OBJECT_NAME":"STARLINK-34096","OBJECT_ID":"2025-102X","EPOCH":"2026-03-09T12:16:41.946240","MEAN_MOTION":14.9833116,"ECCENTRICITY":0.00037929,"INCLINATION":70.0002,"RA_OF_ASC_NODE":114.9789,"ARG_OF_PERICENTER":267.5926,"MEAN_ANOMALY":92.4799,"EPHEMERIS_TYPE":0,"CLASSIFICATION_TYPE":"U","NORAD_CAT_ID":64043,"ELEMENT_SET_NO":999,"REV_AT_EPOCH":4581,"BSTAR":0.00029331627,"MEAN_MOTION_DOT":3.409e-5,"MEAN_MOTION_DDOT":0},{"OBJECT_NAME":"CZ-6A DEB","OBJECT_ID":"2022-151SB","EPOCH":"2026-03-09T22:09:26.196768","MEAN_MOTION":14.85244417,"ECCENTRICITY":0.00728534,"INCLINATION":99.1392,"RA_OF_ASC_NODE":215.607,"ARG_OF_PERICENTER":235.4544,"MEAN_ANOMALY":123.9777,"EPHEMERIS_TYPE":0,"CLASSIFICATION_TYPE":"U","NORAD_CAT_ID":54938,"ELEMENT_SET_NO":999,"REV_AT_EPOCH":17622,"BSTAR":0.0039580306,"MEAN_MOTION_DOT":0.00035713,"MEAN_MOTION_DDOT":0}]
